STARLINK-30193
1 57414U 23102L   26092.83335647  .00050299  00000+0  20805-2 0  9998
2 57414  42.9997 114.0878 0001192 299.3861 306.8046 15.23216593  5787
